{"type": "FeatureCollection", "features": [ {"type": "Feature", "properties": {"norad_id": 30771, "name": "FENGYUN 1C DEB", "group": "fengyun-1c-debris", "lat": 37.77755182497111, "lon": 163.77705331682756, "alt_km": 751.2080389438488, "timestamp": "2025-12-26T22:28:06.063222+00:00", "meta": {"OBJECT_NAME": "FENGYUN 1C DEB", "OBJECT_ID": "1999-025AUH", "EPOCH": "2025-12-26T10:09:59.141088", "MEAN_MOTION": 14.43386939, "ECCENTRICITY": 0.00220758, "INCLINATION": 98.9066, "RA_OF_ASC_NODE": 336.2603, "ARG_OF_PERICENTER": 258.4613, "MEAN_ANOMALY": 101.4097, "EPHEMERIS_TYPE": 0, "CLASSIFICATION_TYPE": "U", "NORAD_CAT_ID": 30771, "ELEMENT_SET_NO": 999, "REV_AT_EPOCH": 97261, "BSTAR": 0.0024621735, "MEAN_MOTION_DOT": 8.296e-05, "MEAN_MOTION_DDOT": 0}, "tle": {"line1": "1 30771U 99025AUH 25360.42360117  .00008296  00000+0  24622-2 0  9995", "line2": "2 30771  98.9066 336.2603 0022075 258.4613 101.4097 14.43386939972613"}}, "geometry": {"type": "Point", "coordinates": [163.77705331682756, 37.77755182497111]}}, {"type": "Feature", "properties": {"norad_id": 30802, "name": "FENGYUN 1C DEB", "group": "fengyun-1c-debris", "lat": 76.92579504439362, "lon": 45.944031508719725, "alt_km": 774.3208078289699, "timestamp": "2025-12-26T22:28:06.063233+00:00", "meta": {"OBJECT_NAME": "FENGYUN 1C DEB", "OBJECT_ID": "1999-025AUL", "EPOCH": "2025-12-26T05:27:28.410624", "MEAN_MOTION": 14.32567241, "ECCENTRICITY": 0.00174936, "INCLINATION": 98.8364, "RA_OF_ASC_NODE": 87.2766, "ARG_OF_PERICENTER": 359.42, "MEAN_ANOMALY": 27.5035, "EPHEMERIS_TYPE": 0, "CLASSIFICATION_TYPE": "U", "NORAD_CAT_ID": 30802, "ELEMENT_SET_NO": 999, "REV_AT_EPOCH": 97396, "BSTAR": 0.0016692609, "MEAN_MOTION_DOT": 4.494e-05, "MEAN_MOTION_DDOT": 0}, "tle": {"line1": "1 30802U 99025AUL 25360.22741216  .00004494  00000+0  16693-2 0  9996", "line2": "2 30802  98.8364  87.2766 0017493 359.4200  27.5035 14.32567241973967"}}, "geometry": {"type": "Point", "coordinates": [45.944031508719725, 76.92579504439362]}}, {"type": "Feature", "properties": {"norad_id": 30803, "name": "FENGYUN 1C DEB", "group": "fengyun-1c-debris", "lat": 39.20808661873049, "lon": 26.900035828874948, "alt_km": 892.8309563608309, "timestamp": "2025-12-26T22:28:06.063243+00:00", "meta": {"OBJECT_NAME": "FENGYUN 1C DEB", "OBJECT_ID": "1999-025AUM", "EPOCH": "2025-12-26T02:09:58.470048", "MEAN_MOTION": 14.11307772, "ECCENTRICITY": 0.01075362, "INCLINATION": 99.2453, "RA_OF_ASC_NODE": 33.6652, "ARG_OF_PERICENTER": 164.6015, "MEAN_ANOMALY": 260.8339, "EPHEMERIS_TYPE": 0, "CLASSIFICATION_TYPE": "U", "NORAD_CAT_ID": 30803, "ELEMENT_SET_NO": 999, "REV_AT_EPOCH": 96187, "BSTAR": 0.0011509826, "MEAN_MOTION_DOT": 2.15e-05, "MEAN_MOTION_DDOT": 0}, "tle": {"line1": "1 30803U 99025AUM 25360.09026007  .00002150  00000+0  11510-2 0  9996", "line2": "2 30803  99.2453  33.6652 0107536 164.6015 260.8339 14.11307772961873"}}, "geometry": {"type": "Point", "coordinates": [26.900035828874948, 39.20808661873049]}}, {"type": "Feature", "properties": {"norad_id": 30804, "name": "FENGYUN 1C DEB", "group": "fengyun-1c-debris", "lat": 57.51869943633994, "lon": -98.48765654185524, "alt_km": 586.1393902319014, "timestamp": "2025-12-26T22:28:06.063253+00:00", "meta": {"OBJECT_NAME": "FENGYUN 1C DEB", "OBJECT_ID": "1999-025AUN", "EPOCH": "2025-12-26T10:25:49.149696", "MEAN_MOTION": 14.54674358, "ECCENTRICITY": 0.01859918, "INCLINATION": 98.8932, "RA_OF_ASC_NODE": 66.7407, "ARG_OF_PERICENTER": 149.1061, "MEAN_ANOMALY": 227.9426, "EPHEMERIS_TYPE": 0, "CLASSIFICATION_TYPE": "U", "NORAD_CAT_ID": 30804, "ELEMENT_SET_NO": 999, "REV_AT_EPOCH": 99676, "BSTAR": 0.00043607646, "MEAN_MOTION_DOT": 2.29e-05, "MEAN_MOTION_DDOT": 0}, "tle": {"line1": "1 30804U 99025AUN 25360.43459664  .00002290  00000+0  43608-3 0  9993", "line2": "2 30804  98.8932  66.7407 0185991 149.1061 227.9426 14.54674358996767"}}, "geometry": {"type": "Point", "coordinates": [-98.48765654185524, 57.51869943633994]}}, {"type": "Feature", "properties": {"norad_id": 30805, "name": "FENGYUN 1C DEB", "group": "fengyun-1c-debris", "lat": 29.284654887165242, "lon": -131.8514917667756, "alt_km": 885.319957171394, "timestamp": "2025-12-26T22:28:06.063263+00:00", "meta": {"OBJECT_NAME": "FENGYUN 1C DEB", "OBJECT_ID": "1999-025AUP", "EPOCH": "2025-12-26T01:20:58.344576", "MEAN_MOTION": 14.0293342, "ECCENTRICITY": 0.00707271, "INCLINATION": 98.8198, "RA_OF_ASC_NODE": 42.3008, "ARG_OF_PERICENTER": 246.6314, "MEAN_ANOMALY": 142.6198, "EPHEMERIS_TYPE": 0, "CLASSIFICATION_TYPE": "U", "NORAD_CAT_ID": 30805, "ELEMENT_SET_NO": 999, "REV_AT_EPOCH": 96147, "BSTAR": 0.001016474, "MEAN_MOTION_DOT": 1.568e-05, "MEAN_MOTION_DDOT": 0}, "tle": {"line1": "1 30805U 99025AUP 25360.05623084  .00001568  00000+0  10165-2 0  9999", "line2": "2 30805  98.8198  42.3008 0070727 246.6314 142.6198 14.02933420961473"}}, "geometry": {"type": "Point", "coordinates": [-131.8514917667756, 29.284654887165242]}}, {"type": "Feature", "properties": {"norad_id": 30806, "name": "FENGYUN 1C DEB", "group": "fengyun-1c-debris", "lat": -53.111342309414724, "lon": 38.86954225379689, "alt_km": 1169.2090454267209, "timestamp": "2025-12-26T22:28:06.063274+00:00", "meta": {"OBJECT_NAME": "FENGYUN 1C DEB", "OBJECT_ID": "1999-025AUQ", "EPOCH": "2025-12-26T07:15:30.079008", "MEAN_MOTION": 13.7044132, "ECCENTRICITY": 0.0267792, "INCLINATION": 99.0349, "RA_OF_ASC_NODE": 26.034, "ARG_OF_PERICENTER": 94.7675, "MEAN_ANOMALY": 327.9208, "EPHEMERIS_TYPE": 0, "CLASSIFICATION_TYPE": "U", "NORAD_CAT_ID": 30806, "ELEMENT_SET_NO": 999, "REV_AT_EPOCH": 93881, "BSTAR": 0.00074753558, "MEAN_MOTION_DOT": 8.13e-06, "MEAN_MOTION_DDOT": 0}, "tle": {"line1": "1 30806U 99025AUQ 25360.30243147  .00000813  00000+0  74754-3 0  9993", "line2": "2 30806  99.0349  26.0340 0267792  94.7675 327.9208 13.70441320938814"}}, "geometry": {"type": "Point", "coordinates": [38.86954225379689, -53.111342309414724]}}, {"type": "Feature", "properties": {"norad_id": 30809, "name": "FENGYUN 1C DEB", "group": "fengyun-1c-debris", "lat": -61.55631719705126, "lon": -106.49639822058818, "alt_km": 814.4023405371354, "timestamp": "2025-12-26T22:28:06.063284+00:00", "meta": {"OBJECT_NAME": "FENGYUN 1C DEB", "OBJECT_ID": "1999-025AUT", "EPOCH": "2025-12-26T11:15:37.069920", "MEAN_MOTION": 14.29346248, "ECCENTRICITY": 0.00520302, "INCLINATION": 98.788, "RA_OF_ASC_NODE": 89.6262, "ARG_OF_PERICENTER": 132.8847, "MEAN_ANOMALY": 227.6721, "EPHEMERIS_TYPE": 0, "CLASSIFICATION_TYPE": "U", "NORAD_CAT_ID": 30809, "ELEMENT_SET_NO": 999, "REV_AT_EPOCH": 97283, "BSTAR": 0.001718231, "MEAN_MOTION_DOT": 4.398e-05, "MEAN_MOTION_DDOT": 0}, "tle": {"line1": "1 30809U 99025AUT 25360.46917905  .00004398  00000+0  17182-2 0  9996", "line2": "2 30809  98.7880  89.6262 0052030 132.8847 227.6721 14.29346248972837"}}, "geometry": {"type": "Point", "coordinates": [-106.49639822058818, -61.55631719705126]}}, {"type": "Feature", "properties": {"norad_id": 30810, "name": "FENGYUN 1C DEB", "group": "fengyun-1c-debris", "lat": 69.6162419108569, "lon": 148.01255331920984, "alt_km": 799.0240033790215, "timestamp": "2025-12-26T22:28:06.063295+00:00", "meta": {"OBJECT_NAME": "FENGYUN 1C DEB", "OBJECT_ID": "1999-025AUU", "EPOCH": "2025-12-26T10:10:11.850528", "MEAN_MOTION": 14.04278297, "ECCENTRICITY": 0.01800156, "INCLINATION": 98.6608, "RA_OF_ASC_NODE": 171.7406, "ARG_OF_PERICENTER": 16.1637, "MEAN_ANOMALY": 344.5172, "EPHEMERIS_TYPE": 0, "CLASSIFICATION_TYPE": "U", "NORAD_CAT_ID": 30810, "ELEMENT_SET_NO": 999, "REV_AT_EPOCH": 94575, "BSTAR": 0.0029608531, "MEAN_MOTION_DOT": 5.397e-05, "MEAN_MOTION_DDOT": 0}, "tle": {"line1": "1 30810U 99025AUU 25360.42374827  .00005397  00000+0  29609-2 0  9991", "line2": "2 30810  98.6608 171.7406 0180015  16.1637 344.5172 14.04278297945756"}}, "geometry": {"type": "Point", "coordinates": [148.01255331920984, 69.6162419108569]}}, {"type": "Feature", "properties": {"norad_id": 30811, "name": "FENGYUN 1C DEB", "group": "fengyun-1c-debris", "lat": -7.1377042299842755, "lon": 40.007430327771814, "alt_km": 834.3888413281302, "timestamp": "2025-12-26T22:28:06.063305+00:00", "meta": {"OBJECT_NAME": "FENGYUN 1C DEB", "OBJECT_ID": "1999-025AUV", "EPOCH": "2025-12-24T01:44:19.374144", "MEAN_MOTION": 13.61876924, "ECCENTRICITY": 0.02779162, "INCLINATION": 98.7823, "RA_OF_ASC_NODE": 36.3167, "ARG_OF_PERICENTER": 16.5271, "MEAN_ANOMALY": 344.4713, "EPHEMERIS_TYPE": 0, "CLASSIFICATION_TYPE": "U", "NORAD_CAT_ID": 30811, "ELEMENT_SET_NO": 999, "REV_AT_EPOCH": 93021, "BSTAR": 0.001582937, "MEAN_MOTION_DOT": 1.538e-05, "MEAN_MOTION_DDOT": 0}, "tle": {"line1": "1 30811U 99025AUV 25358.07244646  .00001538  00000+0  15829-2 0  9997", "line2": "2 30811  98.7823  36.3167 0277916  16.5271 344.4713 13.61876924930210"}}, "geometry": {"type": "Point", "coordinates": [40.007430327771814, -7.1377042299842755]}}, {"type": "Feature", "properties": {"norad_id": 30814, "name": "FENGYUN 1C DEB", "group": "fengyun-1c-debris", "lat": 45.32869777719741, "lon": -30.620668697738665, "alt_km": 703.5754542513532, "timestamp": "2025-12-26T22:28:06.063316+00:00", "meta": {"OBJECT_NAME": "FENGYUN 1C DEB", "OBJECT_ID": "1999-025AUY", "EPOCH": "2025-12-26T11:19:01.888032", "MEAN_MOTION": 14.60762816, "ECCENTRICITY": 0.00305969, "INCLINATION": 99.0829, "RA_OF_ASC_NODE": 338.1827, "ARG_OF_PERICENTER": 188.7784, "MEAN_ANOMALY": 295.6131, "EPHEMERIS_TYPE": 0, "CLASSIFICATION_TYPE": "U", "NORAD_CAT_ID": 30814, "ELEMENT_SET_NO": 999, "REV_AT_EPOCH": 97942, "BSTAR": 0.0024913032, "MEAN_MOTION_DOT": 0.000122, "MEAN_MOTION_DDOT": 0}, "tle": {"line1": "1 30814U 99025AUY 25360.47154963  .00012200  00000+0  24913-2 0  9991", "line2": "2 30814  99.0829 338.1827 0030596 188.7784 295.6131 14.60762816979422"}}, "geometry": {"type": "Point", "coordinates": [-30.620668697738665, 45.32869777719741]}}]}